{
  "norad_id": 64051,
  "name": "TIANYI D",
  "history": [
    {
      "epoch": "2026-03-28T21:43:26.848704Z",
      "apogee_km": 515.3461885552724,
      "perigee_km": 509.8282344211957,
      "latitude_deg": -3.02109971167218e-05,
      "longitude_deg": 8.871420270504215,
      "height_km": 516.7069462031417,
      "semi_major_axis_km": 6890.724211488234,
      "eccentricity": 0.00040039,
      "inclination_deg": 97.3876,
      "raan_deg": 161.0522,
      "arg_perigee_deg": 112.103,
      "mean_anomaly_deg": 248.0629,
      "mean_motion_rev_day": 15.17768235
    },
    {
      "epoch": "2026-03-29T04:03:11.649312Z",
      "apogee_km": 515.3351874701311,
      "perigee_km": 509.81710438287337,
      "latitude_deg": -3.1768282796898846e-06,
      "longitude_deg": -86.06777973068891,
      "height_km": 516.6699664509346,
      "semi_major_axis_km": 6890.713145926502,
      "eccentricity": 0.0004004,
      "inclination_deg": 97.3876,
      "raan_deg": 161.3096,
      "arg_perigee_deg": 111.5236,
      "mean_anomaly_deg": 248.6425,
      "mean_motion_rev_day": 15.17771891
    }
  ]
}